ORBCOMM FM05            
1 25117U 97084F   25246.97586149  .00002664  00000+0  77809-3 0  9993
2 25117  45.0160 349.7017 0004059 237.2130 122.8331 14.46163112452012
ORBCOMM FM06            
1 25118U 97084G   25247.06247791  .00002762  00000+0  80270-3 0  9997
2 25118  45.0151 348.9354 0003062 232.7551 299.5095 14.46308480452948
ORBCOMM FM07            
1 25119U 97084H   25247.24997163  .00002750  00000+0  79927-3 0  9997
2 25119  45.0145 348.7990 0004934 237.6777 122.3598 14.46318734452965
ORBCOMM FM03            
1 25158U 98007B   25247.12955753  .00001868  00000+0  69835-3 0  9998
2 25158 107.9658 297.7954 0043149 112.2222 248.3504 14.34664153435369
ORBCOMM FM04            
1 25159U 98007C   25247.10024382  .00001992  00000+0  73953-3 0  9996
2 25159 107.9643 301.0092 0038876 109.7310 250.8029 14.34909575435546
ORBCOMM FM17            
1 25413U 98046A   25247.26831364  .00001359  00000+0  51961-3 0  9997
2 25413  44.9933 244.3480 0004957 266.0329  93.9951 14.35226074414534
ORBCOMM FM18            
1 25414U 98046B   25247.23706891  .00002196  00000+0  75427-3 0  9994
2 25414  44.9917 159.7685 0006113 327.0677  32.9790 14.38738266415633
ORBCOMM FM19            
1 25415U 98046C   25247.22568451  .00002273  00000+0  78230-3 0  9993
2 25415  44.9927 161.9451 0004891 324.1168 198.3494 14.38550542415586
